SHIJIAN-16 (SJ-16)      
1 39358U 13057A   25337.34859331  .00001977  00000+0  19761-3 0  9990
2 39358  74.9737   7.4232 0017343 341.9581  18.0989 14.91948485657134
SL-4 R/B                
1 39679U 14021B   25337.31507853  .00018555  00000+0  44186-3 0  9993
2 39679  51.6072  86.3843 0102607 112.3140 248.8758 15.36299726641448
ALOS-2                  
1 39766U 14029A   25337.34199796  .00005493  00000+0  74217-3 0  9999
2 39766  97.9237  72.3222 0001539 107.1227 253.0153 14.79451134622622
YAOGAN-29               
1 41038U 15069A   25337.37274523  .00000788  00000+0  10395-3 0  9993
2 41038  98.0228   0.5140 0000766   7.4265 352.6960 14.82865731541602
ASTRO-H (HITOMI)        
1 41337U 16012A   25337.16699187  .00004827  00000+0  28990-3 0  9996
2 41337  31.0001 259.0818 0009481  81.4203 278.7509 15.09254479537636
HXMT (HUIYAN)           
1 42758U 17034A   25337.30428699  .00006595  00000+0  34339-3 0  9991
2 42758  43.0128 191.9848 0032883 343.1337  16.8415 15.16125173467907
CZ-2C R/B               
1 43521U 18054D   25337.15080250  .00116887  00000+0  85487-3 0  9999
2 43521  35.1341 245.8114 0017526  42.6186 317.5903 15.71657055413544
SAOCOM 1A               
1 43641U 18076A   25337.35544650  .00000810  00000+0  10829-3 0  9993
2 43641  97.8855 161.9143 0001566  86.4753 273.6639 14.82160911387094
H-2A R/B                
1 43682U 18084L   25337.31848085  .00024003  00000+0  65927-3 0  9991
2 43682  98.8777 169.4482 0028136 358.8599   1.2571 15.36849454390953
SAOCOM 1B               
1 46265U 20059A   25337.38667605  .00001626  00000+0  21085-3 0  9993
2 46265  97.8842 161.0462 0001269  86.5053 273.6305 14.82144196284480
CSS (TIANHE)            
1 48274U 21035A   25337.36113141  .00026743  00000+0  34172-3 0  9997
2 48274  41.4677  73.6192 0010070 319.5464  40.4624 15.58580261262566
COSMOS 2550             
1 48865U 21056A   25337.33615971 -.00000130  00000+0  18764-5 0  9995
2 48865  67.1429 332.3779 0008382 270.4034  89.6160 15.33827475248680
