CCSDS_OMM_VERS = 2.0
CREATION_DATE  = 
ORIGINATOR     = 

OBJECT_NAME    = SHIJIAN-16 (SJ-16)
OBJECT_ID      = 2013-057A
CENTER_NAME    = EARTH
REF_FRAME      = TEME
TIME_SYSTEM    = UTC
MEAN_ELEMENT_THEORY = SGP/SGP4

EPOCH          = 2025-12-03T08:21:58.461984
MEAN_MOTION    = 14.91948485
ECCENTRICITY   = .00173436
INCLINATION    = 74.9737
RA_OF_ASC_NODE = 7.4232
ARG_OF_PERICENTER = 341.9581
MEAN_ANOMALY   = 18.0989

EPHEMERIS_TYPE = 0
CLASSIFICATION_TYPE = U
NORAD_CAT_ID   = 39358
ELEMENT_SET_NO = 999
REV_AT_EPOCH   = 65713
BSTAR          = .19761341E-3
MEAN_MOTION_DOT = .1977E-4
MEAN_MOTION_DDOT = 0

CCSDS_OMM_VERS = 2.0
CREATION_DATE  = 
ORIGINATOR     = 

OBJECT_NAME    = SL-4 R/B
OBJECT_ID      = 2014-021B
CENTER_NAME    = EARTH
REF_FRAME      = TEME
TIME_SYSTEM    = UTC
MEAN_ELEMENT_THEORY = SGP/SGP4

EPOCH          = 2025-12-03T07:33:42.784992
MEAN_MOTION    = 15.36299726
ECCENTRICITY   = .0102607
INCLINATION    = 51.6072
RA_OF_ASC_NODE = 86.3843
ARG_OF_PERICENTER = 112.3140
MEAN_ANOMALY   = 248.8758

EPHEMERIS_TYPE = 0
CLASSIFICATION_TYPE = U
NORAD_CAT_ID   = 39679
ELEMENT_SET_NO = 999
REV_AT_EPOCH   = 64144
BSTAR          = .44185783E-3
MEAN_MOTION_DOT = .18555E-3
MEAN_MOTION_DDOT = 0

CCSDS_OMM_VERS = 2.0
CREATION_DATE  = 
ORIGINATOR     = 

OBJECT_NAME    = ALOS-2
OBJECT_ID      = 2014-029A
CENTER_NAME    = EARTH
REF_FRAME      = TEME
TIME_SYSTEM    = UTC
MEAN_ELEMENT_THEORY = SGP/SGP4

EPOCH          = 2025-12-03T08:12:28.623744
MEAN_MOTION    = 14.79451134
ECCENTRICITY   = .00015393
INCLINATION    = 97.9237
RA_OF_ASC_NODE = 72.3222
ARG_OF_PERICENTER = 107.1227
MEAN_ANOMALY   = 253.0153

EPHEMERIS_TYPE = 0
CLASSIFICATION_TYPE = U
NORAD_CAT_ID   = 39766
ELEMENT_SET_NO = 999
REV_AT_EPOCH   = 62262
BSTAR          = .74217202E-3
MEAN_MOTION_DOT = .5493E-4
MEAN_MOTION_DDOT = 0

CCSDS_OMM_VERS = 2.0
CREATION_DATE  = 
ORIGINATOR     = 

OBJECT_NAME    = YAOGAN-29
OBJECT_ID      = 2015-069A
CENTER_NAME    = EARTH
REF_FRAME      = TEME
TIME_SYSTEM    = UTC
MEAN_ELEMENT_THEORY = SGP/SGP4

EPOCH          = 2025-12-03T08:56:45.187872
MEAN_MOTION    = 14.82865731
ECCENTRICITY   = .0000766
INCLINATION    = 98.0228
RA_OF_ASC_NODE = 0.5140
ARG_OF_PERICENTER = 7.4265
MEAN_ANOMALY   = 352.6960

EPHEMERIS_TYPE = 0
CLASSIFICATION_TYPE = U
NORAD_CAT_ID   = 41038
ELEMENT_SET_NO = 999
REV_AT_EPOCH   = 54160
BSTAR          = .10395053E-3
MEAN_MOTION_DOT = .788E-5
MEAN_MOTION_DDOT = 0

CCSDS_OMM_VERS = 2.0
CREATION_DATE  = 
ORIGINATOR     = 

OBJECT_NAME    = ASTRO-H (HITOMI)
OBJECT_ID      = 2016-012A
CENTER_NAME    = EARTH
REF_FRAME      = TEME
TIME_SYSTEM    = UTC
MEAN_ELEMENT_THEORY = SGP/SGP4

EPOCH          = 2025-12-03T04:00:28.097568
MEAN_MOTION    = 15.09254479
ECCENTRICITY   = .00094813
INCLINATION    = 31.0001
RA_OF_ASC_NODE = 259.0818
ARG_OF_PERICENTER = 81.4203
MEAN_ANOMALY   = 278.7509

EPHEMERIS_TYPE = 0
CLASSIFICATION_TYPE = U
NORAD_CAT_ID   = 41337
ELEMENT_SET_NO = 999
REV_AT_EPOCH   = 53763
BSTAR          = .28990225E-3
MEAN_MOTION_DOT = .4827E-4
MEAN_MOTION_DDOT = 0

CCSDS_OMM_VERS = 2.0
CREATION_DATE  = 
ORIGINATOR     = 

OBJECT_NAME    = HXMT (HUIYAN)
OBJECT_ID      = 2017-034A
CENTER_NAME    = EARTH
REF_FRAME      = TEME
TIME_SYSTEM    = UTC
MEAN_ELEMENT_THEORY = SGP/SGP4

EPOCH          = 2025-12-03T07:18:10.395936
MEAN_MOTION    = 15.16125173
ECCENTRICITY   = .00328838
INCLINATION    = 43.0128
RA_OF_ASC_NODE = 191.9848
ARG_OF_PERICENTER = 343.1337
MEAN_ANOMALY   = 16.8415

EPHEMERIS_TYPE = 0
CLASSIFICATION_TYPE = U
NORAD_CAT_ID   = 42758
ELEMENT_SET_NO = 999
REV_AT_EPOCH   = 46790
BSTAR          = .34338568E-3
MEAN_MOTION_DOT = .6595E-4
MEAN_MOTION_DDOT = 0

CCSDS_OMM_VERS = 2.0
CREATION_DATE  = 
ORIGINATOR     = 

OBJECT_NAME    = CZ-2C R/B
OBJECT_ID      = 2018-054D
CENTER_NAME    = EARTH
REF_FRAME      = TEME
TIME_SYSTEM    = UTC
MEAN_ELEMENT_THEORY = SGP/SGP4

EPOCH          = 2025-12-03T03:37:09.336000
MEAN_MOTION    = 15.71657055
ECCENTRICITY   = .00175269
INCLINATION    = 35.1341
RA_OF_ASC_NODE = 245.8114
ARG_OF_PERICENTER = 42.6186
MEAN_ANOMALY   = 317.5903

EPHEMERIS_TYPE = 0
CLASSIFICATION_TYPE = U
NORAD_CAT_ID   = 43521
ELEMENT_SET_NO = 999
REV_AT_EPOCH   = 41354
BSTAR          = .85487E-3
MEAN_MOTION_DOT = .116887E-2
MEAN_MOTION_DDOT = 0

CCSDS_OMM_VERS = 2.0
CREATION_DATE  = 
ORIGINATOR     = 

OBJECT_NAME    = SAOCOM 1A
OBJECT_ID      = 2018-076A
CENTER_NAME    = EARTH
REF_FRAME      = TEME
TIME_SYSTEM    = UTC
MEAN_ELEMENT_THEORY = SGP/SGP4

EPOCH          = 2025-12-03T08:31:50.577600
MEAN_MOTION    = 14.82160911
ECCENTRICITY   = .00015662
INCLINATION    = 97.8855
RA_OF_ASC_NODE = 161.9143
ARG_OF_PERICENTER = 86.4753
MEAN_ANOMALY   = 273.6639

EPHEMERIS_TYPE = 0
CLASSIFICATION_TYPE = U
NORAD_CAT_ID   = 43641
ELEMENT_SET_NO = 999
REV_AT_EPOCH   = 38709
BSTAR          = .10828621E-3
MEAN_MOTION_DOT = .81E-5
MEAN_MOTION_DDOT = 0

CCSDS_OMM_VERS = 2.0
CREATION_DATE  = 
ORIGINATOR     = 

OBJECT_NAME    = H-2A R/B
OBJECT_ID      = 2018-084L
CENTER_NAME    = EARTH
REF_FRAME      = TEME
TIME_SYSTEM    = UTC
MEAN_ELEMENT_THEORY = SGP/SGP4

EPOCH          = 2025-12-03T07:38:36.745440
MEAN_MOTION    = 15.36849454
ECCENTRICITY   = .00281364
INCLINATION    = 98.8777
RA_OF_ASC_NODE = 169.4482
ARG_OF_PERICENTER = 358.8599
MEAN_ANOMALY   = 1.2571

EPHEMERIS_TYPE = 0
CLASSIFICATION_TYPE = U
NORAD_CAT_ID   = 43682
ELEMENT_SET_NO = 999
REV_AT_EPOCH   = 39095
BSTAR          = .65926741E-3
MEAN_MOTION_DOT = .24003E-3
MEAN_MOTION_DDOT = 0

CCSDS_OMM_VERS = 2.0
CREATION_DATE  = 
ORIGINATOR     = 

OBJECT_NAME    = SAOCOM 1B
OBJECT_ID      = 2020-059A
CENTER_NAME    = EARTH
REF_FRAME      = TEME
TIME_SYSTEM    = UTC
MEAN_ELEMENT_THEORY = SGP/SGP4

EPOCH          = 2025-12-03T09:16:48.810720
MEAN_MOTION    = 14.82144196
ECCENTRICITY   = .0001269
INCLINATION    = 97.8842
RA_OF_ASC_NODE = 161.0462
ARG_OF_PERICENTER = 86.5053
MEAN_ANOMALY   = 273.6305

EPHEMERIS_TYPE = 0
CLASSIFICATION_TYPE = U
NORAD_CAT_ID   = 46265
ELEMENT_SET_NO = 999
REV_AT_EPOCH   = 28448
BSTAR          = .2108515E-3
MEAN_MOTION_DOT = .1626E-4
MEAN_MOTION_DDOT = 0

CCSDS_OMM_VERS = 2.0
CREATION_DATE  = 
ORIGINATOR     = 

OBJECT_NAME    = CSS (TIANHE)
OBJECT_ID      = 2021-035A
CENTER_NAME    = EARTH
REF_FRAME      = TEME
TIME_SYSTEM    = UTC
MEAN_ELEMENT_THEORY = SGP/SGP4

EPOCH          = 2025-12-03T08:40:01.753824
MEAN_MOTION    = 15.58580261
ECCENTRICITY   = .00100709
INCLINATION    = 41.4677
RA_OF_ASC_NODE = 73.6192
ARG_OF_PERICENTER = 319.5464
MEAN_ANOMALY   = 40.4624

EPHEMERIS_TYPE = 0
CLASSIFICATION_TYPE = U
NORAD_CAT_ID   = 48274
ELEMENT_SET_NO = 999
REV_AT_EPOCH   = 26256
BSTAR          = .34171532E-3
MEAN_MOTION_DOT = .26743E-3
MEAN_MOTION_DDOT = 0

CCSDS_OMM_VERS = 2.0
CREATION_DATE  = 
ORIGINATOR     = 

OBJECT_NAME    = COSMOS 2550
OBJECT_ID      = 2021-056A
CENTER_NAME    = EARTH
REF_FRAME      = TEME
TIME_SYSTEM    = UTC
MEAN_ELEMENT_THEORY = SGP/SGP4

EPOCH          = 2025-12-03T08:04:04.198944
MEAN_MOTION    = 15.33827475
ECCENTRICITY   = .00083822
INCLINATION    = 67.1429
RA_OF_ASC_NODE = 332.3779
ARG_OF_PERICENTER = 270.4034
MEAN_ANOMALY   = 89.6160

EPHEMERIS_TYPE = 0
CLASSIFICATION_TYPE = U
NORAD_CAT_ID   = 48865
ELEMENT_SET_NO = 999
REV_AT_EPOCH   = 24868
BSTAR          = .1876398E-5
MEAN_MOTION_DOT = -.13E-5
MEAN_MOTION_DDOT = 0

